[{"OBJECT_NAME":"ONEWEB-0411","OBJECT_ID":"2022-012B","EPOCH":"2026-03-09T23:27:20.247552","MEAN_MOTION":13.10370121,"ECCENTRICITY":0.00024132,"INCLINATION":87.8771,"RA_OF_ASC_NODE":56.0149,"ARG_OF_PERICENTER":88.5181,"MEAN_ANOMALY":271.6223,"EPHEMERIS_TYPE":0,"CLASSIFICATION_TYPE":"U","NORAD_CAT_ID":51623,"ELEMENT_SET_NO":999,"REV_AT_EPOCH":19629,"BSTAR":-0.0011866415,"MEAN_MOTION_DOT":-4.02e-6,"MEAN_MOTION_DDOT":0},{"OBJECT_NAME":"DELTA 1 DEB","OBJECT_ID":"1975-052AF","EPOCH":"2026-03-09T22:50:55.690080","MEAN_MOTION":12.94612775,"ECCENTRICITY":0.02504162,"INCLINATION":99.8451,"RA_OF_ASC_NODE":218.2651,"ARG_OF_PERICENTER":51.4208,"MEAN_ANOMALY":57.0896,"EPHEMERIS_TYPE":0,"CLASSIFICATION_TYPE":"U","NORAD_CAT_ID":21294,"ELEMENT_SET_NO":999,"REV_AT_EPOCH":64376,"BSTAR":0.0014290951,"MEAN_MOTION_DOT":4.22e-6,"MEAN_MOTION_DDOT":0}]
